[{"OBJECT_NAME":"OBJECT N","OBJECT_ID":"2024-205N","EPOCH":"2026-03-09T22:36:13.267872","MEAN_MOTION":15.33862123,"ECCENTRICITY":0.00094432,"INCLINATION":97.4211,"RA_OF_ASC_NODE":148.9295,"ARG_OF_PERICENTER":39.7652,"MEAN_ANOMALY":320.4281,"EPHEMERIS_TYPE":0,"CLASSIFICATION_TYPE":"U","NORAD_CAT_ID":61906,"ELEMENT_SET_NO":999,"REV_AT_EPOCH":7364,"BSTAR":0.00078005624,"MEAN_MOTION_DOT":0.00025559,"MEAN_MOTION_DDOT":0},{"OBJECT_NAME":"STARLINK-34324","OBJECT_ID":"2025-117E","EPOCH":"2026-03-09T22:15:51.957216","MEAN_MOTION":15.30218329,"ECCENTRICITY":0.0001408,"INCLINATION":53.1605,"RA_OF_ASC_NODE":38.3938,"ARG_OF_PERICENTER":96.8997,"MEAN_ANOMALY":263.2164,"EPHEMERIS_TYPE":0,"CLASSIFICATION_TYPE":"U","NORAD_CAT_ID":64207,"ELEMENT_SET_NO":999,"REV_AT_EPOCH":4353,"BSTAR":0.0012951374,"MEAN_MOTION_DOT":0.00038218,"MEAN_MOTION_DDOT":0}]
